{
  "norad_id": 48483,
  "name": "STARLINK-2531",
  "history": [
    {
      "epoch": "2026-05-03T16:36:00.412416Z",
      "apogee_km": 471.6090447314664,
      "perigee_km": 469.84340779173635,
      "latitude_deg": -2.1694461112693604e-05,
      "longitude_deg": -172.22375374226348,
      "height_km": 471.9096908685965,
      "semi_major_axis_km": 6848.863226261601,
      "eccentricity": 0.0001289,
      "inclination_deg": 53.1602,
      "raan_deg": 298.3697,
      "arg_perigee_deg": 108.8146,
      "mean_anomaly_deg": 251.2995,
      "mean_motion_rev_day": 15.31704619
    },
    {
      "epoch": "2026-05-04T17:39:22.794336Z",
      "apogee_km": 471.5840717056826,
      "perigee_km": 469.8307675342603,
      "latitude_deg": 8.229839015012786e-07,
      "longitude_deg": 166.0418792020904,
      "height_km": 471.6359104911387,
      "semi_major_axis_km": 6848.844419619972,
      "eccentricity": 0.000128,
      "inclination_deg": 53.1608,
      "raan_deg": 293.5076,
      "arg_perigee_deg": 91.945,
      "mean_anomaly_deg": 268.1698,
      "mean_motion_rev_day": 15.31710928
    }
  ]
}